QIANFAN-73              
1 63159U 25046A   25274.24407984  .00000207  00000+0  30272-3 0  9994
2 63159  88.9817 327.5218 0013737 341.1429  18.9211 13.50977974 37622
QIANFAN-74              
1 63160U 25046B   25270.22805291  .00000088  00000+0  11848-3 0  9998
2 63160  88.9824 327.8233 0002256 105.7462 254.3938 13.50969278 37144
QIANFAN-75              
1 63161U 25046C   25274.28932600  .00000246  00000+0  36304-3 0  9994
2 63161  88.9820 327.6381 0014894 343.7271  16.3400 13.50975198 37560
QIANFAN-76              
1 63162U 25046D   25274.28521720  .00000143  00000+0  20324-3 0  9993
2 63162  88.9820 327.6195 0012501 345.7144  14.3652 13.50974747 37575
QIANFAN-77              
1 63163U 25046E   25274.29511957  .00000620  00000+0  44233-3 0  9991
2 63163  88.9816 326.2205 0012683 311.9747  48.0348 13.96058759 38341
QIANFAN-78              
1 63164U 25046F   25270.17873922  .00000155  00000+0  22125-3 0  9997
2 63164  88.9825 327.9067 0014334 359.8558   0.2586 13.50978582 37092
QIANFAN-79              
1 63165U 25046G   25274.28099556  .00000220  00000+0  32252-3 0  9992
2 63165  88.9823 327.5894 0013567 345.7916  14.2851 13.50969820 37594
QIANFAN-80              
1 63166U 25046H   25274.29757521  .00000247  00000+0  36394-3 0  9997
2 63166  88.9819 327.2965 0012732 351.0181   9.0740 13.50970599 37755
